{
  "type": "FeatureCollection",
  "features": [
    {
      "type": "Feature",
      "properties": {
        "norad_id": 34963,
        "name": "COSMOS 2251 DEB",
        "group": "cosmos-2251-debris",
        "lat": -38.68229612361129,
        "lon": -130.5103663394043,
        "alt_km": 698.4768777597365,
        "timestamp": "2025-12-16T03:53:27.450874+00:00",
        "meta_object_name": "COSMOS 2251 DEB",
        "meta_object_id": "1993-036AES",
        "meta_epoch": "2025-12-12T21:06:37.533312",
        "meta_mean_motion": 14.5108556,
        "meta_eccentricity": 0.00425092,
        "meta_inclination": 74.1719,
        "meta_ra_of_asc_node": 42.4827,
        "meta_arg_of_pericenter": 238.9907,
        "meta_mean_anomaly": 120.7077,
        "meta_ephemeris_type": 0,
        "meta_classification_type": "U",
        "meta_norad_cat_id": 34963,
        "meta_element_set_no": 999,
        "meta_rev_at_epoch": 86803,
        "meta_bstar": 0.0018603991,
        "meta_mean_motion_dot": 7.439e-05,
        "meta_mean_motion_ddot": 0,
        "tle_line1": "1 34963U 93036AES 25346.87960108  .00007439  00000+0  18604-2 0  9998",
        "tle_line2": "2 34963  74.1719  42.4827 0042509 238.9907 120.7077 14.51085560868035"
      },
      "geometry": {
        "type": "Point",
        "coordinates": [
          -130.5103663394043,
          -38.68229612361129
        ]
      }
    },
    {
      "type": "Feature",
      "properties": {
        "norad_id": 34964,
        "name": "COSMOS 2251 DEB",
        "group": "cosmos-2251-debris",
        "lat": -19.504739417802668,
        "lon": -23.95689050642556,
        "alt_km": 1013.7777373859572,
        "timestamp": "2025-12-16T03:53:27.450884+00:00",
        "meta_object_name": "COSMOS 2251 DEB",
        "meta_object_id": "1993-036AET",
        "meta_epoch": "2025-12-12T17:42:31.829760",
        "meta_mean_motion": 14.00606472,
        "meta_eccentricity": 0.0212761,
        "meta_inclination": 73.9721,
        "meta_ra_of_asc_node": 347.8441,
        "meta_arg_of_pericenter": 206.277,
        "meta_mean_anomaly": 152.7449,
        "meta_ephemeris_type": 0,
        "meta_classification_type": "U",
        "meta_norad_cat_id": 34964,
        "meta_element_set_no": 999,
        "meta_rev_at_epoch": 84478,
        "meta_bstar": 0.0019398871,
        "meta_mean_motion_dot": 3.487e-05,
        "meta_mean_motion_ddot": 0,
        "tle_line1": "1 34964U 93036AET 25346.73786840  .00003487  00000+0  19399-2 0  9994",
        "tle_line2": "2 34964  73.9721 347.8441 0212761 206.2770 152.7449 14.00606472844784"
      },
      "geometry": {
        "type": "Point",
        "coordinates": [
          -23.95689050642556,
          -19.504739417802668
        ]
      }
    },
    {
      "type": "Feature",
      "properties": {
        "norad_id": 34965,
        "name": "COSMOS 2251 DEB",
        "group": "cosmos-2251-debris",
        "lat": -71.10569957979216,
        "lon": 65.39424819871454,
        "alt_km": 720.6725659573694,
        "timestamp": "2025-12-16T03:53:27.450894+00:00",
        "meta_object_name": "COSMOS 2251 DEB",
        "meta_object_id": "1993-036AEU",
        "meta_epoch": "2025-12-13T03:20:09.825504",
        "meta_mean_motion": 14.48709196,
        "meta_eccentricity": 0.00265546,
        "meta_inclination": 74.0514,
        "meta_ra_of_asc_node": 127.7194,
        "meta_arg_of_pericenter": 255.0904,
        "meta_mean_anomaly": 104.7315,
        "meta_ephemeris_type": 0,
        "meta_classification_type": "U",
        "meta_norad_cat_id": 34965,
        "meta_element_set_no": 999,
        "meta_rev_at_epoch": 87119,
        "meta_bstar": 0.00058289093,
        "meta_mean_motion_dot": 2.18e-05,
        "meta_mean_motion_ddot": 0,
        "tle_line1": "1 34965U 93036AEU 25347.13900261  .00002180  00000+0  58289-3 0  9996",
        "tle_line2": "2 34965  74.0514 127.7194 0026554 255.0904 104.7315 14.48709196871194"
      },
      "geometry": {
        "type": "Point",
        "coordinates": [
          65.39424819871454,
          -71.10569957979216
        ]
      }
    },
    {
      "type": "Feature",
      "properties": {
        "norad_id": 34967,
        "name": "COSMOS 2251 DEB",
        "group": "cosmos-2251-debris",
        "lat": 41.19691133911096,
        "lon": 52.92346485379839,
        "alt_km": 747.0286689721015,
        "timestamp": "2025-12-16T03:53:27.450905+00:00",
        "meta_object_name": "COSMOS 2251 DEB",
        "meta_object_id": "1993-036AEW",
        "meta_epoch": "2025-12-13T00:27:20.673792",
        "meta_mean_motion": 14.44269018,
        "meta_eccentricity": 0.00380101,
        "meta_inclination": 73.9933,
        "meta_ra_of_asc_node": 253.3374,
        "meta_arg_of_pericenter": 39.5345,
        "meta_mean_anomaly": 320.8573,
        "meta_ephemeris_type": 0,
        "meta_classification_type": "U",
        "meta_norad_cat_id": 34967,
        "meta_element_set_no": 999,
        "meta_rev_at_epoch": 64961,
        "meta_bstar": 0.0011451852,
        "meta_mean_motion_dot": 3.946e-05,
        "meta_mean_motion_ddot": 0,
        "tle_line1": "1 34967U 93036AEW 25347.01898928  .00003946  00000+0  11452-2 0  9992",
        "tle_line2": "2 34967  73.9933 253.3374 0038010  39.5345 320.8573 14.44269018649616"
      },
      "geometry": {
        "type": "Point",
        "coordinates": [
          52.92346485379839,
          41.19691133911096
        ]
      }
    },
    {
      "type": "Feature",
      "properties": {
        "norad_id": 34968,
        "name": "COSMOS 2251 DEB",
        "group": "cosmos-2251-debris",
        "lat": 1.7410358448644505,
        "lon": 60.048060063552526,
        "alt_km": 758.7700343479664,
        "timestamp": "2025-12-16T03:53:27.450915+00:00",
        "meta_object_name": "COSMOS 2251 DEB",
        "meta_object_id": "1993-036AEX",
        "meta_epoch": "2025-12-14T03:22:05.329344",
        "meta_mean_motion": 14.59409619,
        "meta_eccentricity": 0.00866972,
        "meta_inclination": 74.0386,
        "meta_ra_of_asc_node": 244.3991,
        "meta_arg_of_pericenter": 4.4101,
        "meta_mean_anomaly": 355.7807,
        "meta_ephemeris_type": 0,
        "meta_classification_type": "U",
        "meta_norad_cat_id": 34968,
        "meta_element_set_no": 999,
        "meta_rev_at_epoch": 88498,
        "meta_bstar": 0.00021583388,
        "meta_mean_motion_dot": 1.045e-05,
        "meta_mean_motion_ddot": 0,
        "tle_line1": "1 34968U 93036AEX 25348.14033946  .00001045  00000+0  21583-3 0  9994",
        "tle_line2": "2 34968  74.0386 244.3991 0086697   4.4101 355.7807 14.59409619884988"
      },
      "geometry": {
        "type": "Point",
        "coordinates": [
          60.048060063552526,
          1.7410358448644505
        ]
      }
    },
    {
      "type": "Feature",
      "properties": {
        "norad_id": 34969,
        "name": "COSMOS 2251 DEB",
        "group": "cosmos-2251-debris",
        "lat": -60.697023738990545,
        "lon": -13.824484154810321,
        "alt_km": 834.3246466045211,
        "timestamp": "2025-12-16T03:53:27.450925+00:00",
        "meta_object_name": "COSMOS 2251 DEB",
        "meta_object_id": "1993-036AEY",
        "meta_epoch": "2025-12-15T08:04:56.937504",
        "meta_mean_motion": 14.32259973,
        "meta_eccentricity": 0.00734993,
        "meta_inclination": 74.0143,
        "meta_ra_of_asc_node": 18.3975,
        "meta_arg_of_pericenter": 150.988,
        "meta_mean_anomaly": 209.5387,
        "meta_ephemeris_type": 0,
        "meta_classification_type": "U",
        "meta_norad_cat_id": 34969,
        "meta_element_set_no": 999,
        "meta_rev_at_epoch": 65174,
        "meta_bstar": 0.00026982603,
        "meta_mean_motion_dot": 7.24e-06,
        "meta_mean_motion_ddot": 0,
        "tle_line1": "1 34969U 93036AEY 25349.33677011  .00000724  00000+0  26983-3 0  9996",
        "tle_line2": "2 34969  74.0143  18.3975 0073499 150.9880 209.5387 14.32259973651740"
      },
      "geometry": {
        "type": "Point",
        "coordinates": [
          -13.824484154810321,
          -60.697023738990545
        ]
      }
    },
    {
      "type": "Feature",
      "properties": {
        "norad_id": 34971,
        "name": "COSMOS 2251 DEB",
        "group": "cosmos-2251-debris",
        "lat": -14.013928668625303,
        "lon": 102.61468664682975,
        "alt_km": 680.4000321888143,
        "timestamp": "2025-12-16T03:53:27.450960+00:00",
        "meta_object_name": "COSMOS 2251 DEB",
        "meta_object_id": "1993-036AFA",
        "meta_epoch": "2025-12-14T13:53:19.427712",
        "meta_mean_motion": 14.55636753,
        "meta_eccentricity": 0.00695431,
        "meta_inclination": 73.9787,
        "meta_ra_of_asc_node": 281.5121,
        "meta_arg_of_pericenter": 146.7538,
        "meta_mean_anomaly": 32.8652,
        "meta_ephemeris_type": 0,
        "meta_classification_type": "U",
        "meta_norad_cat_id": 34971,
        "meta_element_set_no": 999,
        "meta_rev_at_epoch": 66199,
        "meta_bstar": 0.00020308025,
        "meta_mean_motion_dot": 8.85e-06,
        "meta_mean_motion_ddot": 0,
        "tle_line1": "1 34971U 93036AFA 25348.57869708  .00000885  00000+0  20308-3 0  9993",
        "tle_line2": "2 34971  73.9787 281.5121 0069543 146.7538  32.8652 14.55636753661990"
      },
      "geometry": {
        "type": "Point",
        "coordinates": [
          102.61468664682975,
          -14.013928668625303
        ]
      }
    }
  ]
}